start=new Date('2021-11-24T00:00:00.000Z').valueOf();
sats=[{"GP_ID":"190364143","OBJECT_TYPE":"PAYLOAD","DECAY_DATE":null,"INCLINATION":"53.0560","RCS_SIZE":"LARGE","EPOCH":"2021-11-23T16:00:30.430368","PERIOD":"95.593","ELEMENT_SET_NO":"999","SITE":"AFETR","COUNTRY_CODE":"US","TIME_SYSTEM":"UTC","MEAN_MOTION_DOT":"-0.00001996","TLE_LINE2":"2 46679  53.0560  56.2404 0000576 153.1778 206.9241 15.06391451 61224","MEAN_ELEMENT_THEORY":"SGP4","MEAN_ANOMALY":"206.9241","REF_FRAME":"TEME","ARG_OF_PERICENTER":"153.1778","OBJECT_ID":"2020-073K","TLE_LINE1":"1 46679U 20073K   21327.66701887 -.00001996  00000-0 -11520-3 0  9991","EPHEMERIS_TYPE":"0","REV_AT_EPOCH":"6122","CENTER_NAME":"EARTH","APOAPSIS":"547.639","MEAN_MOTION_DDOT":"0.0000000000000","BSTAR":"-0.00011520000000","LAUNCH_DATE":"2020-10-18","RA_OF_ASC_NODE":"56.2404","OBJECT_NAME":"STARLINK-1773","MEAN_MOTION":"15.06391451","CLASSIFICATION_TYPE":"U","SEMIMAJOR_AXIS":"6925.375","PERIAPSIS":"546.841","ECCENTRICITY":"0.00005760","FILE":"3222563","NORAD_CAT_ID":"46679"},{"COUNTRY_CODE":"US","SITE":"AFETR","TIME_SYSTEM":"UTC","MEAN_MOTION_DOT":"-0.00001183","TLE_LINE2":"2 46680  53.0539  90.6399 0001173  68.9836 291.1278 15.06389132 60755","MEAN_ELEMENT_THEORY":"SGP4","EPOCH":"2021-11-23T19:14:54.886560","PERIOD":"95.593","ELEMENT_SET_NO":"999","DECAY_DATE":null,"RCS_SIZE":"LARGE","INCLINATION":"53.0539","OBJECT_TYPE":"PAYLOAD","GP_ID":"190363893","PERIAPSIS":"546.435","SEMIMAJOR_AXIS":"6925.382","NORAD_CAT_ID":"46680","FILE":"3222563","ECCENTRICITY":"0.00011730","LAUNCH_DATE":"2020-10-18","OBJECT_NAME":"STARLINK-1774","RA_OF_ASC_NODE":"90.6399","CLASSIFICATION_TYPE":"U","MEAN_MOTION":"15.06389132","TLE_LINE1":"1 46680U 20073L   21327.80202415 -.00001183  00000-0 -60533-4 0  9999","OBJECT_ID":"2020-073L","REV_AT_EPOCH":"6075","EPHEMERIS_TYPE":"0","CENTER_NAME":"EARTH","BSTAR":"-0.00006053300000","MEAN_MOTION_DDOT":"0.0000000000000","APOAPSIS":"548.059","MEAN_ANOMALY":"291.1278","REF_FRAME":"TEME","ARG_OF_PERICENTER":"68.9836"},{"BSTAR":"-0.00004287300000","MEAN_MOTION_DDOT":"0.0000000000000","APOAPSIS":"548.095","CENTER_NAME":"EARTH","REV_AT_EPOCH":"6074","EPHEMERIS_TYPE":"0","TLE_LINE1":"1 46681U 20073M   21327.77252543 -.00000920  00000-0 -42873-4 0  9998","OBJECT_ID":"2020-073M","ARG_OF_PERICENTER":"78.6594","REF_FRAME":"TEME","MEAN_ANOMALY":"281.4540","FILE":"3222563","NORAD_CAT_ID":"46681","ECCENTRICITY":"0.00012870","PERIAPSIS":"546.312","SEMIMAJOR_AXIS":"6925.339","CLASSIFICATION_TYPE":"U","MEAN_MOTION":"15.06403220","OBJECT_NAME":"STARLINK-1775","RA_OF_ASC_NODE":"90.7888","LAUNCH_DATE":"2020-10-18","DECAY_DATE":null,"INCLINATION":"53.0564","RCS_SIZE":"LARGE","OBJECT_TYPE":"PAYLOAD","GP_ID":"190362641","MEAN_ELEMENT_THEORY":"SGP4","TLE_LINE2":"2 46681  53.0564  90.7888 0001287  78.6594 281.4540 15.06403220 60741","MEAN_MOTION_DOT":"-0.00000920","TIME_SYSTEM":"UTC","COUNTRY_CODE":"US","SITE":"AFETR","ELEMENT_SET_NO":"999","PERIOD":"95.592","EPOCH":"2021-11-23T18:32:26.197152"},{"TLE_LINE1":"1 46682U 20073N   21327.40024635  .00001212  00000-0  10024-3 0  9993","OBJECT_ID":"2020-073N","EPHEMERIS_TYPE":"0","REV_AT_EPOCH":"6069","CENTER_NAME":"EARTH","BSTAR":"0.00010024000000","MEAN_MOTION_DDOT":"0.0000000000000","APOAPSIS":"548.137","MEAN_ANOMALY":"279.6496","REF_FRAME":"TEME","ARG_OF_PERICENTER":"80.4644","PERIAPSIS":"546.289","SEMIMAJOR_AXIS":"6925.348","FILE":"3222418","NORAD_CAT_ID":"46682","ECCENTRICITY":"0.00013340","LAUNCH_DATE":"2020-10-18","OBJECT_NAME":"STARLINK-1776","RA_OF_ASC_NODE":"92.4535","CLASSIFICATION_TYPE":"U","MEAN_MOTION":"15.06400216","RCS_SIZE":"LARGE","DECAY_DATE":null,"INCLINATION":"53.0536","OBJECT_TYPE":"PAYLOAD","GP_ID":"190336601","COUNTRY_CODE":"US","SITE":"AFETR","TIME_SYSTEM":"UTC","MEAN_MOTION_DOT":"0.00001212","TLE_LINE2":"2 46682  53.0536  92.4535 0001334  80.4644 279.6496 15.06400216 60694","MEAN_ELEMENT_THEORY":"SGP4","EPOCH":"2021-11-23T09:36:21.284640","PERIOD":"95.592","ELEMENT_SET_NO":"999"},{"PERIOD":"95.591","ELEMENT_SET_NO":"999","EPOCH":"2021-11-23T22:04:04.624608","TLE_LINE2":"2 46684  53.0503  75.1285 0001689 125.3208 234.7939 15.06420678 60988","MEAN_MOTION_DOT":"-0.00001228","MEAN_ELEMENT_THEORY":"SGP4","SITE":"AFETR","COUNTRY_CODE":"US","TIME_SYSTEM":"UTC","GP_ID":"190363643","OBJECT_TYPE":"PAYLOAD","INCLINATION":"53.0503","DECAY_DATE":null,"RCS_SIZE":"LARGE","OBJECT_NAME":"STARLINK-1780","RA_OF_ASC_NODE":"75.1285","MEAN_MOTION":"15.06420678","CLASSIFICATION_TYPE":"U","LAUNCH_DATE":"2020-10-18","ECCENTRICITY":"0.00016890","FILE":"3222563","NORAD_CAT_ID":"46684","SEMIMAJOR_AXIS":"6925.285","PERIAPSIS":"545.981","ARG_OF_PERICENTER":"125.3208","MEAN_ANOMALY":"234.7939","REF_FRAME":"TEME","CENTER_NAME":"EARTH","APOAPSIS":"548.320","BSTAR":"-0.00006353200000","MEAN_MOTION_DDOT":"0.0000000000000","OBJECT_ID":"2020-073Q","TLE_LINE1":"1 46684U 20073Q   21327.91949797 -.00001228  00000-0 -63532-4 0  9998","EPHEMERIS_TYPE":"0","REV_AT_EPOCH":"6098"},{"SEMIMAJOR_AXIS":"6925.348","PERIAPSIS":"546.231","ECCENTRICITY":"0.00014180","NORAD_CAT_ID":"46685","FILE":"3222563","LAUNCH_DATE":"2020-10-18","RA_OF_ASC_NODE":"90.7532","OBJECT_NAME":"STARLINK-1781","MEAN_MOTION":"15.06400037","CLASSIFICATION_TYPE":"U","OBJECT_ID":"2020-073R","TLE_LINE1":"1 46685U 20073R   21327.77621538 -.00000185  00000-0  64594-5 0  9993","EPHEMERIS_TYPE":"0","REV_AT_EPOCH":"6074","CENTER_NAME":"EARTH","APOAPSIS":"548.195","MEAN_MOTION_DDOT":"0.0000000000000","BSTAR":"0.00000645940000","MEAN_ANOMALY":"277.6376","REF_FRAME":"TEME","ARG_OF_PERICENTER":"82.4774","SITE":"AFETR","COUNTRY_CODE":"US","TIME_SYSTEM":"UTC","TLE_LINE2":"2 46685  53.0571  90.7532 0001418  82.4774 277.6376 15.06400037 60745","MEAN_MOTION_DOT":"-0.00000185","MEAN_ELEMENT_THEORY":"SGP4","EPOCH":"2021-11-23T18:37:45.008832","PERIOD":"95.592","ELEMENT_SET_NO":"999","DECAY_DATE":null,"INCLINATION":"53.0571","RCS_SIZE":"LARGE","GP_ID":"190364394","OBJECT_TYPE":"PAYLOAD"},{"CLASSIFICATION_TYPE":"U","MEAN_MOTION":"15.06400772","OBJECT_NAME":"STARLINK-1783","RA_OF_ASC_NODE":"91.4410","LAUNCH_DATE":"2020-10-18","FILE":"3222563","NORAD_CAT_ID":"46686","ECCENTRICITY":"0.00013470","PERIAPSIS":"546.278","SEMIMAJOR_AXIS":"6925.346","ARG_OF_PERICENTER":"76.0416","REF_FRAME":"TEME","MEAN_ANOMALY":"284.0722","MEAN_MOTION_DDOT":"0.0000000000000","BSTAR":"0.00013345000000","APOAPSIS":"548.144","CENTER_NAME":"EARTH","REV_AT_EPOCH":"6072","EPHEMERIS_TYPE":"0","TLE_LINE1":"1 46686U 20073S   21327.62509075  .00001707  00000-0  13345-3 0  9995","OBJECT_ID":"2020-073S","ELEMENT_SET_NO":"999","PERIOD":"95.592","EPOCH":"2021-11-23T15:00:07.840800","MEAN_ELEMENT_THEORY":"SGP4","TLE_LINE2":"2 46686  53.0550  91.4410 0001347  76.0416 284.0722 15.06400772 60720","MEAN_MOTION_DOT":"0.00001707","TIME_SYSTEM":"UTC","COUNTRY_CODE":"US","SITE":"AFETR","OBJECT_TYPE":"PAYLOAD","GP_ID":"190363142","DECAY_DATE":null,"INCLINATION":"53.0550","RCS_SIZE":"LARGE"},{"ECCENTRICITY":"0.00010720","FILE":"3222330","NORAD_CAT_ID":"46687","SEMIMAJOR_AXIS":"6925.347","PERIAPSIS":"546.469","MEAN_MOTION":"15.06400621","CLASSIFICATION_TYPE":"U","OBJECT_NAME":"STARLINK-1784","RA_OF_ASC_NODE":"56.7940","LAUNCH_DATE":"2020-10-18","APOAPSIS":"547.954","BSTAR":"-0.00000632400000","MEAN_MOTION_DDOT":"0.0000000000000","CENTER_NAME":"EARTH","REV_AT_EPOCH":"6168","EPHEMERIS_TYPE":"0","OBJECT_ID":"2020-073T","TLE_LINE1":"1 46687U 20073T   21327.54538042 -.00000375  00000-0 -63240-5 0  9996","ARG_OF_PERICENTER":"68.8175","REF_FRAME":"TEME","MEAN_ANOMALY":"291.2929","MEAN_ELEMENT_THEORY":"SGP4","TLE_LINE2":"2 46687  53.0570  56.7940 0001072  68.8175 291.2929 15.06400621 61689","MEAN_MOTION_DOT":"-0.00000375","TIME_SYSTEM":"UTC","SITE":"AFETR","COUNTRY_CODE":"US","ELEMENT_SET_NO":"999","PERIOD":"95.592","EPOCH":"2021-11-23T13:05:20.868288","RCS_SIZE":"LARGE","DECAY_DATE":null,"INCLINATION":"53.0570","GP_ID":"190313506","OBJECT_TYPE":"PAYLOAD"},{"CENTER_NAME":"EARTH","BSTAR":"0.00012961000000","MEAN_MOTION_DDOT":"0.0000000000000","APOAPSIS":"363.775","TLE_LINE1":"1 46688U 20073U   21327.74735758  .00014596  00000-0  12961-3 0  9992","OBJECT_ID":"2020-073U","EPHEMERIS_TYPE":"0","REV_AT_EPOCH":"6107","ARG_OF_PERICENTER":"358.3543","MEAN_ANOMALY":"1.7465","REF_FRAME":"TEME","NORAD_CAT_ID":"46688","FILE":"3222563","ECCENTRICITY":"0.00023240","PERIAPSIS":"360.642","SEMIMAJOR_AXIS":"6740.344","OBJECT_NAME":"STARLINK-1786","RA_OF_ASC_NODE":"67.8443","CLASSIFICATION_TYPE":"U","MEAN_MOTION":"15.68843743","LAUNCH_DATE":"2020-10-18","DECAY_DATE":null,"RCS_SIZE":"LARGE","INCLINATION":"53.0611","OBJECT_TYPE":"PAYLOAD","GP_ID":"190364144","MEAN_MOTION_DOT":"0.00014596","TLE_LINE2":"2 46688  53.0611  67.8443 0002324 358.3543   1.7465 15.68843743 61070","MEAN_ELEMENT_THEORY":"SGP4","COUNTRY_CODE":"US","SITE":"AFETR","TIME_SYSTEM":"UTC","PERIOD":"91.787","ELEMENT_SET_NO":"999","EPOCH":"2021-11-23T17:56:11.694912"},{"LAUNCH_DATE":"2020-10-18","MEAN_MOTION":"15.06394020","CLASSIFICATION_TYPE":"U","RA_OF_ASC_NODE":"90.8055","OBJECT_NAME":"STARLINK-1788","SEMIMAJOR_AXIS":"6925.367","PERIAPSIS":"546.311","ECCENTRICITY":"0.00013300","NORAD_CAT_ID":"46689","FILE":"3222563","REF_FRAME":"TEME","MEAN_ANOMALY":"277.9683","ARG_OF_PERICENTER":"82.1457","REV_AT_EPOCH":"6199","EPHEMERIS_TYPE":"0","OBJECT_ID":"2020-073V","TLE_LINE1":"1 46689U 20073V   21327.76885024 -.00000479  00000-0 -13299-4 0  9990","APOAPSIS":"548.153","MEAN_MOTION_DDOT":"0.0000000000000","BSTAR":"-0.00001329900000","CENTER_NAME":"EARTH","EPOCH":"2021-11-23T18:27:08.660736","ELEMENT_SET_NO":"999","PERIOD":"95.593","TIME_SYSTEM":"UTC","SITE":"AFETR","COUNTRY_CODE":"US","MEAN_ELEMENT_THEORY":"SGP4","MEAN_MOTION_DOT":"-0.00000479","TLE_LINE2":"2 46689  53.0557  90.8055 0001330  82.1457 277.9683 15.06394020 61998","GP_ID":"190363894","OBJECT_TYPE":"PAYLOAD","RCS_SIZE":"LARGE","DECAY_DATE":null,"INCLINATION":"53.0557"}];
